start=new Date('2022-11-06T00:00:00.000Z').valueOf();
sats=[{"EPOCH":"2022-11-05T22:00:01.999584","NORAD_CAT_ID":"53922","DECAY_DATE":null,"INCLINATION":"53.2166","ELEMENT_SET_NO":"999","EPHEMERIS_TYPE":"0","MEAN_MOTION_DOT":"0.00042791","PERIOD":"91.536","CLASSIFICATION_TYPE":"U","TLE_LINE1":"1 53922U 22119AN  22309.91668981  .00042791  00000-0  30838-3 0  9998","APOAPSIS":"351.665","SITE":"AFETR","OBJECT_TYPE":"PAYLOAD","OBJECT_ID":"2022-119AN","LAUNCH_DATE":"2022-09-24","FILE":"3646218","REF_FRAME":"TEME","COUNTRY_CODE":"US","PERIAPSIS":"348.139","ARG_OF_PERICENTER":"16.7323","TLE_LINE2":"2 53922  53.2166  45.3646 0002620  16.7323 321.2952 15.73150289  7031","BSTAR":"0.00030838000000","OBJECT_NAME":"STARLINK-5002","ECCENTRICITY":"0.00026200","REV_AT_EPOCH":"703","MEAN_MOTION_DDOT":"0.0000000000000","MEAN_MOTION":"15.73150289","GP_ID":"216988830","RCS_SIZE":"LARGE","TIME_SYSTEM":"UTC","RA_OF_ASC_NODE":"45.3646","MEAN_ELEMENT_THEORY":"SGP4","MEAN_ANOMALY":"321.2952","CENTER_NAME":"EARTH","SEMIMAJOR_AXIS":"6728.037"},{"CENTER_NAME":"EARTH","SEMIMAJOR_AXIS":"6728.039","RA_OF_ASC_NODE":"45.3674","MEAN_ELEMENT_THEORY":"SGP4","MEAN_ANOMALY":"318.7569","RCS_SIZE":"LARGE","TIME_SYSTEM":"UTC","MEAN_MOTION":"15.73149526","GP_ID":"216988841","REV_AT_EPOCH":"703","MEAN_MOTION_DDOT":"0.0000000000000","ECCENTRICITY":"0.00029860","TLE_LINE2":"2 53923  53.2164  45.3674 0002986  18.0966 318.7569 15.73149526  7031","BSTAR":"0.00035015000000","OBJECT_NAME":"STARLINK-5004","ARG_OF_PERICENTER":"18.0966","PERIAPSIS":"347.895","REF_FRAME":"TEME","COUNTRY_CODE":"US","FILE":"3646243","LAUNCH_DATE":"2022-09-24","OBJECT_ID":"2022-119AP","OBJECT_TYPE":"PAYLOAD","SITE":"AFETR","TLE_LINE1":"1 53923U 22119AP  22309.91668981  .00048707  00000-0  35015-3 0  9994","APOAPSIS":"351.913","CLASSIFICATION_TYPE":"U","PERIOD":"91.536","MEAN_MOTION_DOT":"0.00048707","ELEMENT_SET_NO":"999","EPHEMERIS_TYPE":"0","INCLINATION":"53.2164","NORAD_CAT_ID":"53923","DECAY_DATE":null,"EPOCH":"2022-11-05T22:00:01.999584"},{"FILE":"3646512","LAUNCH_DATE":"2022-09-24","PERIAPSIS":"347.819","COUNTRY_CODE":"US","REF_FRAME":"TEME","OBJECT_TYPE":"PAYLOAD","OBJECT_ID":"2022-119AQ","TIME_SYSTEM":"UTC","RCS_SIZE":"LARGE","GP_ID":"217021757","MEAN_MOTION":"15.73168509","SEMIMAJOR_AXIS":"6727.985","CENTER_NAME":"EARTH","MEAN_ANOMALY":"321.3687","MEAN_ELEMENT_THEORY":"SGP4","RA_OF_ASC_NODE":"45.3609","OBJECT_NAME":"STARLINK-5001","TLE_LINE2":"2 53924  53.2163  45.3609 0003019  18.4876 321.3687 15.73168509  1308","BSTAR":"0.00026772000000","ARG_OF_PERICENTER":"18.4876","MEAN_MOTION_DDOT":"0.0000000000000","REV_AT_EPOCH":"130","ECCENTRICITY":"0.00030190","MEAN_MOTION_DOT":"0.00037073","EPHEMERIS_TYPE":"0","ELEMENT_SET_NO":"999","PERIOD":"91.535","DECAY_DATE":null,"NORAD_CAT_ID":"53924","EPOCH":"2022-11-05T22:00:01.999584","INCLINATION":"53.2163","SITE":"AFETR","TLE_LINE1":"1 53924U 22119AQ  22309.91668981  .00037073  00000-0  26772-3 0  9999","APOAPSIS":"351.881","CLASSIFICATION_TYPE":"U"},{"SEMIMAJOR_AXIS":"6728.125","CENTER_NAME":"EARTH","MEAN_ANOMALY":"322.5432","MEAN_ELEMENT_THEORY":"SGP4","RA_OF_ASC_NODE":"45.3721","RCS_SIZE":"LARGE","TIME_SYSTEM":"UTC","GP_ID":"217020547","MEAN_MOTION":"15.73119317","MEAN_MOTION_DDOT":"0.0000000000000","REV_AT_EPOCH":"130","ECCENTRICITY":"0.00032340","OBJECT_NAME":"STARLINK-5011","TLE_LINE2":"2 53925  53.2171  45.3721 0003234  13.1266 322.5432 15.73119317  1301","BSTAR":"0.00029701000000","ARG_OF_PERICENTER":"13.1266","PERIAPSIS":"347.814","COUNTRY_CODE":"US","REF_FRAME":"TEME","FILE":"3646512","LAUNCH_DATE":"2022-09-24","OBJECT_ID":"2022-119AR","OBJECT_TYPE":"PAYLOAD","TLE_LINE1":"1 53925U 22119AR  22309.91668981  .00041131  00000-0  29701-3 0  9995","APOAPSIS":"352.166","SITE":"AFETR","CLASSIFICATION_TYPE":"U","PERIOD":"91.538","MEAN_MOTION_DOT":"0.00041131","EPHEMERIS_TYPE":"0","ELEMENT_SET_NO":"999","INCLINATION":"53.2171","DECAY_DATE":null,"NORAD_CAT_ID":"53925","EPOCH":"2022-11-05T22:00:01.999584"},{"MEAN_MOTION_DOT":"0.00046555","EPHEMERIS_TYPE":"0","ELEMENT_SET_NO":"999","PERIOD":"91.536","DECAY_DATE":null,"NORAD_CAT_ID":"53926","EPOCH":"2022-11-05T22:00:01.999584","INCLINATION":"53.2163","TLE_LINE1":"1 53926U 22119AS  22309.91668981  .00046555  00000-0  33504-3 0  9997","APOAPSIS":"351.664","SITE":"AFETR","CLASSIFICATION_TYPE":"U","FILE":"3646512","LAUNCH_DATE":"2022-09-24","PERIAPSIS":"348.170","COUNTRY_CODE":"US","REF_FRAME":"TEME","OBJECT_TYPE":"PAYLOAD","OBJECT_ID":"2022-119AS","RCS_SIZE":"LARGE","TIME_SYSTEM":"UTC","MEAN_MOTION":"15.73144995","GP_ID":"217021312","SEMIMAJOR_AXIS":"6728.052","CENTER_NAME":"EARTH","MEAN_ANOMALY":"321.2141","RA_OF_ASC_NODE":"45.3590","MEAN_ELEMENT_THEORY":"SGP4","OBJECT_NAME":"STARLINK-5014","TLE_LINE2":"2 53926  53.2163  45.3590 0002596  19.2143 321.2141 15.73144995  1301","BSTAR":"0.00033504000000","ARG_OF_PERICENTER":"19.2143","MEAN_MOTION_DDOT":"0.0000000000000","REV_AT_EPOCH":"130","ECCENTRICITY":"0.00025960"},{"ECCENTRICITY":"0.00028330","MEAN_MOTION_DDOT":"0.0000000000000","REV_AT_EPOCH":"130","ARG_OF_PERICENTER":"19.1849","OBJECT_NAME":"STARLINK-5008","BSTAR":"-0.00079092000000","TLE_LINE2":"2 53927  53.2166  45.3492 0002833  19.1849 320.1066 15.73240569  1300","MEAN_ANOMALY":"320.1066","RA_OF_ASC_NODE":"45.3492","MEAN_ELEMENT_THEORY":"SGP4","SEMIMAJOR_AXIS":"6727.780","CENTER_NAME":"EARTH","GP_ID":"217021138","MEAN_MOTION":"15.73240569","TIME_SYSTEM":"UTC","RCS_SIZE":"LARGE","OBJECT_ID":"2022-119AT","OBJECT_TYPE":"PAYLOAD","COUNTRY_CODE":"US","REF_FRAME":"TEME","PERIAPSIS":"347.739","LAUNCH_DATE":"2022-09-24","FILE":"3646512","CLASSIFICATION_TYPE":"U","APOAPSIS":"351.550","TLE_LINE1":"1 53927U 22119AT  22309.91668981 -.00110397  00000-0 -79092-3 0  9998","SITE":"AFETR","INCLINATION":"53.2166","EPOCH":"2022-11-05T22:00:01.999584","DECAY_DATE":null,"NORAD_CAT_ID":"53927","PERIOD":"91.531","ELEMENT_SET_NO":"999","EPHEMERIS_TYPE":"0","MEAN_MOTION_DOT":"-0.00110397"},{"NORAD_CAT_ID":"53928","DECAY_DATE":null,"EPOCH":"2022-11-05T22:00:01.999584","INCLINATION":"53.2164","MEAN_MOTION_DOT":"0.00126097","EPHEMERIS_TYPE":"0","ELEMENT_SET_NO":"999","PERIOD":"91.535","CLASSIFICATION_TYPE":"U","APOAPSIS":"351.723","TLE_LINE1":"1 53928U 22119AU  22309.91668981  .00126097  00000-0  89084-3 0  9993","SITE":"AFETR","OBJECT_TYPE":"PAYLOAD","OBJECT_ID":"2022-119AU","FILE":"3646512","LAUNCH_DATE":"2022-09-24","PERIAPSIS":"348.020","REF_FRAME":"TEME","COUNTRY_CODE":"US","BSTAR":"0.00089084000000","TLE_LINE2":"2 53928  53.2164  45.3470 0002752  22.0662 318.9585 15.73160874  1302","OBJECT_NAME":"STARLINK-5009","ARG_OF_PERICENTER":"22.0662","REV_AT_EPOCH":"130","MEAN_MOTION_DDOT":"0.0000000000000","ECCENTRICITY":"0.00027520","RCS_SIZE":"LARGE","TIME_SYSTEM":"UTC","GP_ID":"217021485","MEAN_MOTION":"15.73160874","CENTER_NAME":"EARTH","SEMIMAJOR_AXIS":"6728.007","RA_OF_ASC_NODE":"45.3470","MEAN_ELEMENT_THEORY":"SGP4","MEAN_ANOMALY":"318.9585"},{"CLASSIFICATION_TYPE":"U","TLE_LINE1":"1 53929U 22119AV  22309.91668981 -.00120021  00000-0 -86354-3 0  9994","APOAPSIS":"352.767","SITE":"AFETR","INCLINATION":"53.2164","EPOCH":"2022-11-05T22:00:01.999584","NORAD_CAT_ID":"53929","DECAY_DATE":null,"PERIOD":"91.535","ELEMENT_SET_NO":"999","EPHEMERIS_TYPE":"0","MEAN_MOTION_DOT":"-0.00120021","ECCENTRICITY":"0.00043350","REV_AT_EPOCH":"130","MEAN_MOTION_DDOT":"0.0000000000000","ARG_OF_PERICENTER":"1.3469","BSTAR":"-0.00086354000000","TLE_LINE2":"2 53929  53.2164  45.3499 0004335   1.3469 337.4694 15.73168453  1306","OBJECT_NAME":"STARLINK-5018","RA_OF_ASC_NODE":"45.3499","MEAN_ELEMENT_THEORY":"SGP4","MEAN_ANOMALY":"337.4694","CENTER_NAME":"EARTH","SEMIMAJOR_AXIS":"6727.985","MEAN_MOTION":"15.73168453","GP_ID":"217020965","RCS_SIZE":"LARGE","TIME_SYSTEM":"UTC","OBJECT_ID":"2022-119AV","OBJECT_TYPE":"PAYLOAD","REF_FRAME":"TEME","COUNTRY_CODE":"US","PERIAPSIS":"346.934","LAUNCH_DATE":"2022-09-24","FILE":"3646512"},{"OBJECT_TYPE":"PAYLOAD","OBJECT_ID":"2022-119AW","FILE":"3646512","LAUNCH_DATE":"2022-09-24","PERIAPSIS":"347.755","COUNTRY_CODE":"US","REF_FRAME":"TEME","OBJECT_NAME":"STARLINK-5010","BSTAR":"-0.00000980310000","TLE_LINE2":"2 53930  53.2168  45.3563 0002940  10.2649 331.8797 15.73209655  1305","ARG_OF_PERICENTER":"10.2649","MEAN_MOTION_DDOT":"0.0000000000000","REV_AT_EPOCH":"130","ECCENTRICITY":"0.00029400","TIME_SYSTEM":"UTC","RCS_SIZE":"LARGE","MEAN_MOTION":"15.73209655","GP_ID":"217021585","SEMIMAJOR_AXIS":"6727.868","CENTER_NAME":"EARTH","MEAN_ANOMALY":"331.8797","RA_OF_ASC_NODE":"45.3563","MEAN_ELEMENT_THEORY":"SGP4","DECAY_DATE":null,"NORAD_CAT_ID":"53930","EPOCH":"2022-11-05T22:00:01.999584","INCLINATION":"53.2168","MEAN_MOTION_DOT":"-0.00001999","EPHEMERIS_TYPE":"0","ELEMENT_SET_NO":"999","PERIOD":"91.533","CLASSIFICATION_TYPE":"U","TLE_LINE1":"1 53930U 22119AW  22309.91668981 -.00001999  00000-0 -98031-5 0  9995","APOAPSIS":"351.711","SITE":"AFETR"},{"COUNTRY_CODE":"US","REF_FRAME":"TEME","PERIAPSIS":"347.467","LAUNCH_DATE":"2022-09-24","FILE":"3646512","OBJECT_ID":"2022-119AX","OBJECT_TYPE":"PAYLOAD","MEAN_ANOMALY":"331.9132","RA_OF_ASC_NODE":"45.3495","MEAN_ELEMENT_THEORY":"SGP4","SEMIMAJOR_AXIS":"6727.983","CENTER_NAME":"EARTH","MEAN_MOTION":"15.73169056","GP_ID":"217020721","RCS_SIZE":"LARGE","TIME_SYSTEM":"UTC","ECCENTRICITY":"0.00035390","MEAN_MOTION_DDOT":"0.0000000000000","REV_AT_EPOCH":"130","ARG_OF_PERICENTER":"11.4621","OBJECT_NAME":"STARLINK-5015","BSTAR":"0.00032964000000","TLE_LINE2":"2 53931  53.2155  45.3495 0003539  11.4621 331.9132 15.73169056  1308","PERIOD":"91.535","EPHEMERIS_TYPE":"0","ELEMENT_SET_NO":"999","MEAN_MOTION_DOT":"0.00045844","INCLINATION":"53.2155","EPOCH":"2022-11-05T22:00:01.999584","DECAY_DATE":null,"NORAD_CAT_ID":"53931","TLE_LINE1":"1 53931U 22119AX  22309.91668981  .00045844  00000-0  32964-3 0  9992","SITE":"AFETR","APOAPSIS":"352.229","CLASSIFICATION_TYPE":"U"}];
